BRO-10
1 58331U 23174CD  25358.27383265  .00068348  00000+0  96336-3 0  9994
2 58331  97.3854  83.3241 0004485  25.6826 334.4651 15.56384360118938